[{"OBJECT_NAME":"COSMOS 2593","OBJECT_ID":"2025-182C","EPOCH":"2026-03-05T13:59:10.158144","MEAN_MOTION":15.96412483,"ECCENTRICITY":0.0007309,"INCLINATION":96.5882,"RA_OF_ASC_NODE":357.8369,"ARG_OF_PERICENTER":166.2302,"MEAN_ANOMALY":193.9177,"EPHEMERIS_TYPE":0,"CLASSIFICATION_TYPE":"U","NORAD_CAT_ID":65269,"ELEMENT_SET_NO":999,"REV_AT_EPOCH":3116,"BSTAR":5.8016e-5,"MEAN_MOTION_DOT":0.00023585,"MEAN_MOTION_DDOT":2.0678e-6},{"OBJECT_NAME":"COSMOS 2594","OBJECT_ID":"2025-182D","EPOCH":"2026-03-06T03:54:06.543936","MEAN_MOTION":15.96514018,"ECCENTRICITY":0.0007121,"INCLINATION":96.5909,"RA_OF_ASC_NODE":358.374,"ARG_OF_PERICENTER":166.0438,"MEAN_ANOMALY":194.1039,"EPHEMERIS_TYPE":0,"CLASSIFICATION_TYPE":"U","NORAD_CAT_ID":65270,"ELEMENT_SET_NO":999,"REV_AT_EPOCH":3127,"BSTAR":0.00025822261,"MEAN_MOTION_DOT":0.00107567,"MEAN_MOTION_DDOT":6.280607e-6},{"OBJECT_NAME":"ISS OBJECT XK","OBJECT_ID":"1998-067XK","EPOCH":"2026-03-07T08:15:04.960224","MEAN_MOTION":16.16022441,"ECCENTRICITY":0.00037028,"INCLINATION":51.6132,"RA_OF_ASC_NODE":58.5421,"ARG_OF_PERICENTER":106.1301,"MEAN_ANOMALY":254.0123,"EPHEMERIS_TYPE":0,"CLASSIFICATION_TYPE":"U","NORAD_CAT_ID":65731,"ELEMENT_SET_NO":999,"REV_AT_EPOCH":2652,"BSTAR":0.0014668335,"MEAN_MOTION_DOT":0.02003917,"MEAN_MOTION_DDOT":0.0042446593},{"OBJECT_NAME":"STARLINK-36618","OBJECT_ID":"2026-033AC","EPOCH":"2026-03-07T14:00:01.000224","MEAN_MOTION":15.91508191,"ECCENTRICITY":0.00021254,"INCLINATION":42.9836,"RA_OF_ASC_NODE":282.1368,"ARG_OF_PERICENTER":272.2505,"MEAN_ANOMALY":116.2535,"EPHEMERIS_TYPE":0,"CLASSIFICATION_TYPE":"U","NORAD_CAT_ID":67847,"ELEMENT_SET_NO":999,"REV_AT_EPOCH":432,"BSTAR":8.3375934e-5,"MEAN_MOTION_DOT":0.0002538,"MEAN_MOTION_DDOT":8.604454e-6},{"OBJECT_NAME":"STARLINK-36818","OBJECT_ID":"2026-035A","EPOCH":"2026-03-07T14:00:01.000224","MEAN_MOTION":15.92355439,"ECCENTRICITY":0.0001163,"INCLINATION":97.2747,"RA_OF_ASC_NODE":358.7595,"ARG_OF_PERICENTER":98.4777,"MEAN_ANOMALY":276.3035,"EPHEMERIS_TYPE":0,"CLASSIFICATION_TYPE":"U","NORAD_CAT_ID":67879,"ELEMENT_SET_NO":999,"REV_AT_EPOCH":341,"BSTAR":-0.0033411656,"MEAN_MOTION_DOT":-0.01116163,"MEAN_MOTION_DDOT":0.00037038519},{"OBJECT_NAME":"STARLINK-36821","OBJECT_ID":"2026-035B","EPOCH":"2026-03-07T14:00:01.000224","MEAN_MOTION":15.92450147,"ECCENTRICITY":0.00011156,"INCLINATION":97.2741,"RA_OF_ASC_NODE":358.7629,"ARG_OF_PERICENTER":94.0481,"MEAN_ANOMALY":288.6403,"EPHEMERIS_TYPE":0,"CLASSIFICATION_TYPE":"U","NORAD_CAT_ID":67880,"ELEMENT_SET_NO":999,"REV_AT_EPOCH":341,"BSTAR":-0.0033348677,"MEAN_MOTION_DOT":-0.01119484,"MEAN_MOTION_DDOT":0.00037278826},{"OBJECT_NAME":"STARLINK-36808","OBJECT_ID":"2026-035C","EPOCH":"2026-03-07T14:00:01.000224","MEAN_MOTION":15.92421696,"ECCENTRICITY":0.00011816,"INCLINATION":97.2744,"RA_OF_ASC_NODE":358.7609,"ARG_OF_PERICENTER":94.526,"MEAN_ANOMALY":283.4599,"EPHEMERIS_TYPE":0,"CLASSIFICATION_TYPE":"U","NORAD_CAT_ID":67881,"ELEMENT_SET_NO":999,"REV_AT_EPOCH":341,"BSTAR":-0.0033284889,"MEAN_MOTION_DOT":-0.01115741,"MEAN_MOTION_DDOT":0.00037037452},{"OBJECT_NAME":"STARLINK-36817","OBJECT_ID":"2026-035D","EPOCH":"2026-03-07T14:00:01.000224","MEAN_MOTION":15.92520187,"ECCENTRICITY":0.00011538,"INCLINATION":97.273,"RA_OF_ASC_NODE":358.7662,"ARG_OF_PERICENTER":95.3033,"MEAN_ANOMALY":296.6216,"EPHEMERIS_TYPE":0,"CLASSIFICATION_TYPE":"U","NORAD_CAT_ID":67882,"ELEMENT_SET_NO":999,"REV_AT_EPOCH":341,"BSTAR":-0.0033775963,"MEAN_MOTION_DOT":-0.01137787,"MEAN_MOTION_DDOT":0.00038443604},{"OBJECT_NAME":"STARLINK-36856","OBJECT_ID":"2026-035E","EPOCH":"2026-03-07T14:00:01.000224","MEAN_MOTION":15.92477815,"ECCENTRICITY":0.00011251,"INCLINATION":97.2737,"RA_OF_ASC_NODE":358.7647,"ARG_OF_PERICENTER":92.3879,"MEAN_ANOMALY":295.1692,"EPHEMERIS_TYPE":0,"CLASSIFICATION_TYPE":"U","NORAD_CAT_ID":67883,"ELEMENT_SET_NO":999,"REV_AT_EPOCH":341,"BSTAR":-0.0033534047,"MEAN_MOTION_DOT":-0.01127253,"MEAN_MOTION_DDOT":0.00037770395},{"OBJECT_NAME":"STARLINK-36842","OBJECT_ID":"2026-035F","EPOCH":"2026-03-07T14:00:01.000224","MEAN_MOTION":15.92563378,"ECCENTRICITY":0.0001085,"INCLINATION":97.273,"RA_OF_ASC_NODE":358.768,"ARG_OF_PERICENTER":82.3446,"MEAN_ANOMALY":313.7208,"EPHEMERIS_TYPE":0,"CLASSIFICATION_TYPE":"U","NORAD_CAT_ID":67884,"ELEMENT_SET_NO":999,"REV_AT_EPOCH":341,"BSTAR":-0.0033604766,"MEAN_MOTION_DOT":-0.01134569,"MEAN_MOTION_DDOT":0.00038259335},{"OBJECT_NAME":"STARLINK-36826","OBJECT_ID":"2026-035G","EPOCH":"2026-03-07T14:00:01.000224","MEAN_MOTION":15.92627757,"ECCENTRICITY":0.00011095,"INCLINATION":97.2729,"RA_OF_ASC_NODE":358.7695,"ARG_OF_PERICENTER":91.5594,"MEAN_ANOMALY":307.9913,"EPHEMERIS_TYPE":0,"CLASSIFICATION_TYPE":"U","NORAD_CAT_ID":67885,"ELEMENT_SET_NO":999,"REV_AT_EPOCH":341,"BSTAR":-0.0033591405,"MEAN_MOTION_DOT":-0.01137875,"MEAN_MOTION_DDOT":0.00038491053},{"OBJECT_NAME":"STARLINK-36390","OBJECT_ID":"2026-035H","EPOCH":"2026-03-07T14:00:01.000224","MEAN_MOTION":15.92659789,"ECCENTRICITY":0.00011449,"INCLINATION":97.2724,"RA_OF_ASC_NODE":358.7714,"ARG_OF_PERICENTER":89.9145,"MEAN_ANOMALY":314.4784,"EPHEMERIS_TYPE":0,"CLASSIFICATION_TYPE":"U","NORAD_CAT_ID":67886,"ELEMENT_SET_NO":999,"REV_AT_EPOCH":346,"BSTAR":-0.0033662466,"MEAN_MOTION_DOT":-0.01142141,"MEAN_MOTION_DDOT":0.0003877154},{"OBJECT_NAME":"STARLINK-36368","OBJECT_ID":"2026-035J","EPOCH":"2026-03-07T14:00:01.000224","MEAN_MOTION":15.92698231,"ECCENTRICITY":0.00012429,"INCLINATION":97.2722,"RA_OF_ASC_NODE":358.7732,"ARG_OF_PERICENTER":99.1379,"MEAN_ANOMALY":309.9003,"EPHEMERIS_TYPE":0,"CLASSIFICATION_TYPE":"U","NORAD_CAT_ID":67887,"ELEMENT_SET_NO":999,"REV_AT_EPOCH":341,"BSTAR":-0.0033687802,"MEAN_MOTION_DOT":-0.01145263,"MEAN_MOTION_DDOT":0.00038983121},{"OBJECT_NAME":"STARLINK-36801","OBJECT_ID":"2026-035K","EPOCH":"2026-03-07T14:00:01.000224","MEAN_MOTION":15.92742351,"ECCENTRICITY":0.00012614,"INCLINATION":97.2717,"RA_OF_ASC_NODE":358.7751,"ARG_OF_PERICENTER":96.1863,"MEAN_ANOMALY":317.3658,"EPHEMERIS_TYPE":0,"CLASSIFICATION_TYPE":"U","NORAD_CAT_ID":67888,"ELEMENT_SET_NO":999,"REV_AT_EPOCH":341,"BSTAR":-0.0033905535,"MEAN_MOTION_DOT":-0.0115522,"MEAN_MOTION_DDOT":0.00039631136},{"OBJECT_NAME":"STARLINK-36372","OBJECT_ID":"2026-035L","EPOCH":"2026-03-07T14:00:01.000224","MEAN_MOTION":15.92835022,"ECCENTRICITY":0.00012597,"INCLINATION":97.2709,"RA_OF_ASC_NODE":358.7781,"ARG_OF_PERICENTER":95.5859,"MEAN_ANOMALY":326.7016,"EPHEMERIS_TYPE":0,"CLASSIFICATION_TYPE":"U","NORAD_CAT_ID":67889,"ELEMENT_SET_NO":999,"REV_AT_EPOCH":341,"BSTAR":-0.0033803558,"MEAN_MOTION_DOT":-0.01157271,"MEAN_MOTION_DDOT":0.00039799016},{"OBJECT_NAME":"STARLINK-36363","OBJECT_ID":"2026-035M","EPOCH":"2026-03-07T14:00:01.000224","MEAN_MOTION":15.92777099,"ECCENTRICITY":0.00012264,"INCLINATION":97.2717,"RA_OF_ASC_NODE":358.7773,"ARG_OF_PERICENTER":95.7461,"MEAN_ANOMALY":322.7798,"EPHEMERIS_TYPE":0,"CLASSIFICATION_TYPE":"U","NORAD_CAT_ID":67890,"ELEMENT_SET_NO":999,"REV_AT_EPOCH":341,"BSTAR":-0.003398693,"MEAN_MOTION_DOT":-0.01160033,"MEAN_MOTION_DDOT":0.00039951706}]
